STARLINK-37349          
1 68734U 26082G   26113.55163343 -.00661971  00000+0 -35909-2 0  9998
2 68734  97.2880 335.6752 0001306 150.6491 209.4851 15.81607049  1181
