{
  "norad_id": 68734,
  "name": "STARLINK-37349",
  "history": [
    {
      "epoch": "2026-04-23T13:14:21.128352Z",
      "apogee_km": 326.7716867136014,
      "perigee_km": 325.0193866891577,
      "latitude_deg": -1.90641556595398e-05,
      "longitude_deg": -74.51006848965623,
      "height_km": 329.83523334171,
      "semi_major_axis_km": 6704.032536701379,
      "eccentricity": 0.00013069,
      "inclination_deg": 97.288,
      "raan_deg": 335.6752,
      "arg_perigee_deg": 150.6491,
      "mean_anomaly_deg": 209.4851,
      "mean_motion_rev_day": 15.81607049
    }
  ]
}